OPTICUBE 04             
1 41851U 16067D   19067.46519329  .00000252  00000-0  27308-4 0  9994
2 41851  97.9133 163.8735 0008915  14.5898 345.5579 14.96764463126629
AEROCUBE 8D             
1 41852U 16067E   19067.19347124  .00000256  00000-0  27736-4 0  9996
2 41852  97.9144 163.4249 0009678  14.3412 345.8082 14.96648484126564
AEROCUBE 8C             
1 41853U 16067F   19067.21395305  .00000787  00000-0  74359-4 0  9996
2 41853  97.9151 163.3898 0010186  17.3251 342.8315 14.96617118126568
PROMETHEUS 2-1          
1 41854U 16067G   19067.19498266  .00000427  00000-0  42578-4 0  9993
2 41854  97.9150 163.4620 0010241  14.8260 345.3260 14.96796050126566
PROMETHEUS 2-3          
1 41855U 16067H   19067.46503441  .00000548  00000-0  53113-4 0  9997
2 41855  97.9154 163.7472 0010413  14.4675 345.6842 14.96799687126609
INS-1B                  
1 41954U 17008G   19066.72653783  .00001240  00000-0  54630-4 0  9991
2 41954  97.4122 133.0730 0010357 140.4897 219.7097 15.23665859114120
BGUSAT                  
1 41999U 17008BD  19066.98195295  .00002047  00000-0  83243-4 0  9995
2 41999  97.4179 135.2787 0009152 152.5039 207.6685 15.25652296113637
DIDO-2                  
1 42000U 17008BE  19067.37165317  .00001008  00000-0  44915-4 0  9994
2 42000  97.4134 134.2406 0009237 154.5998 205.5695 15.23699268113624
PEASSS                  
1 42015U 17008BV  19066.41376499  .00001140  00000-0  49135-4 0  9995
2 42015  97.4140 134.0951 0006941 160.1265 200.0244 15.24604565114010
AL-FARABI 1             
1 42016U 17008BW  19066.97802947  .00001385  00000-0  58097-4 0  9997
2 42016  97.4151 135.0819 0006882 157.8349 202.3188 15.25170943114243
NAYIF-1 (EO-88)         
1 42017U 17008BX  19066.70523457  .00001423  00000-0  59560-4 0  9994
2 42017  97.4148 134.8207 0006850 158.8335 201.3188 15.25199829114220
PHOENIX                 
1 42706U 98067LP  19067.46925589  .00104852  00000-0  37976-3 0  9995
2 42706  51.6250  74.5611 0003636  73.8756 286.2648 15.87756454103594
ALTAIR PATHFINDER       
1 42711U 98067LS  19067.46098166  .00028678  00000-0  20190-3 0  9994
2 42711  51.6314  97.3123 0003826  85.4575 274.6861 15.73859439102950
SHARC                   
1 42712U 98067LT  19067.32989954  .00115432  00000-0  45578-3 0  9996
2 42712  51.6286  91.8998 0004315  61.2321 298.9116 15.85950904103251
ZA-AEROSAT              
1 42713U 98067LU  19067.44124765  .00080827  00000-0  32928-3 0  9995
2 42713  51.6315  80.4849 0003880  75.5280 284.6154 15.85445514103173
CSUNSAT1                
1 42715U 98067LW  19067.26438378  .00110334  00000-0  37018-3 0  9997
2 42715  51.6281  77.7533 0004676  79.4372 280.7160 15.89265559103194
NJUST-1                 
1 42722U 98067MB  19067.56993145  .00048944  00000-0  24250-3 0  9997
2 42722  51.6362  85.0025 0003869 112.2273 339.1151 15.81497700102194
LILACSAT-1 (LO-90)      
1 42725U 98067ME  19067.52425986  .00270817  42673-4  46838-3 0  9997
2 42725  51.6295  69.4091 0005046  93.3441 358.0387 16.01789543102302
NSIGHT                  
1 42726U 98067MF  19067.50650047  .00018395  00000-0  17241-3 0  9995
2 42726  51.6366 109.8336 0004627 130.7438 229.3961 15.67259647101775
SNUSAT-1B               
1 42727U 98067MG  19067.44644981  .00267803  41111-4  51790-3 0  9998
2 42727  51.6237  70.4821 0005766  89.5125 270.6545 15.99857046102246
SNUSAT-1                
1 42733U 98067MN  19067.45843736  .00861238  45779-3  69517-3 0  9996
2 42733  51.6188  64.4229 0005533  99.2537 260.9104 16.13679805102212
BEEAGLESAT              
1 42736U 98067MR  19067.46260219  .00121674  16592-4  38855-3 0  9995
2 42736  51.6276  75.2317 0003993 104.7101 255.4348 15.90896889102135
UCLSAT                  
1 42765U 17036A   19066.68712346  .00001168  00000-0  53385-4 0  9994
2 42765  97.3651 126.8395 0010374 226.0461 133.9920 15.22473836 94794
LITUANICASAT-2          
1 42768U 17036D   19066.92656235  .00001813  00000-0  81420-4 0  9996
2 42768  97.3680 126.6362 0014418 215.9545 144.0722 15.22355875 94676
AALTO-1                 
1 42775U 17036L   19066.78620548  .00000752  00000-0  36770-4 0  9995
2 42775  97.3639 125.9144 0013093 215.7561 144.2799 15.21155346 94566
URSA MAIOR              
1 42776U 17036M   19067.15010661  .00000808  00000-0  39142-4 0  9995
2 42776  97.3646 126.3862 0012954 214.2202 145.8200 15.21275585 94627
COMPASS 2               
1 42777U 17036N   19067.34847036  .00001577  00000-0  70877-4 0  9995
2 42777  97.3679 127.4908 0011772 214.6116 145.4355 15.22539291 94694
DIAMOND RED             
1 42783U 17036U   19067.15718841  .00000907  00000-0  42736-4 0  9991
2 42783  97.3651 126.9822 0011067 225.1461 134.8878 15.21975440 94654
PEGASUS                 
1 42784U 17036V   19067.35225785  .00001091  00000-0  50411-4 0  9998
2 42784  97.3654 127.3449 0010990 224.0661 135.9700 15.22241368 94698
DIAMOND GREEN           
1 42785U 17036W   19067.15599356  .00000926  00000-0  43577-4 0  9996
2 42785  97.3652 127.0019 0010948 225.6349 134.3992 15.21974516 94648
DIAMOND BLUE            
1 42786U 17036X   19067.15499519  .00000909  00000-0  42842-4 0  9992
2 42786  97.3652 127.0001 0010780 225.9206 134.1143 15.21974497 94643
NUDTSAT                 
1 42787U 17036Y   19066.95078751  .00001381  00000-0  61519-4 0  9998
2 42787  97.3693 127.4693 0009830 232.6833 127.3533 15.23076011 94504
SUCHAI                  
1 42788U 17036Z   19066.39989640  .00001278  00000-0  57942-4 0  9995
2 42788  97.3658 126.6442 0010512 226.8262 133.2097 15.22607201 94634
SKCUBE                  
1 42789U 17036AA  19066.14667202  .00001112  00000-0  50925-4 0  9997
2 42789  97.3656 126.3580 0010362 227.8691 132.1665 15.22525951 94510
VZLUSAT-1               
1 42790U 17036AB  19066.41224122  .00001582  00000-0  70029-4 0  9997
2 42790  97.3667 126.9451 0010010 225.9092 134.1322 15.23085710 94574
ROBUSTA-1B              
1 42792U 17036AD  19067.40293823  .00001261  00000-0  57073-4 0  9991
2 42792  97.3653 127.7110 0010009 223.5288 136.5160 15.22692419 94723
CICERO 6                
1 42793U 17036AE  19067.11004039  .00000828  00000-0  38848-4 0  9996
2 42793  97.3639 127.2874 0009168 226.0806 133.9674 15.22371770 94745
D-SAT                   
1 42794U 17036AF  19067.13292533  .00000259  00000-0  27696-4 0  9994
2 42794  97.5546 116.2692 0128077 123.1071 238.2518 14.91032779 93050
TOKI                    
1 42820U 98067MU  19067.22929291  .00121014  00000-0  40653-3 0  9995
2 42820  51.6278  81.2394 0004559  66.5204 293.6280 15.89204577 95495
MAZAALAI (NUMSAT-1)     
1 42822U 98067MW  19067.36476643  .00099576  00000-0  36308-3 0  9999
2 42822  51.6294  82.1931 0004248  73.0731 287.0739 15.87637368 95475
BRAC ONNESHA            
1 42823U 98067MX  19067.12329874  .00104031  00000-0  36457-3 0  9995
2 42823  51.6266  82.8112 0005140  80.8253 279.3333 15.88414446 95442
NIGERIAEDUSAT-1         
1 42824U 98067MY  19067.22403823  .00108147  00000-0  39969-3 0  9997
2 42824  51.6305  83.5693 0004759  85.5966 274.5582 15.87328064 95438
CORVUS BC2              
1 42846U 17042X   19067.26642046  .00000294  00000-0  34297-4 0  9995
2 42846  97.5776 325.2826 0010663  43.1317 317.0736 14.91929786 89741
CORVUS BC1              
1 42847U 17042Y   19066.28761119  .00000019  00000-0  71687-5 0  9990
2 42847  97.5778 324.4310 0010400  45.8628 314.3445 14.92029228 89599
SILU-1 (SILKROAD 1)     
1 42903U 17021F   19067.50819380  .00157334  18165-4  32699-3 0  9996
2 42903  42.7692 145.1713 0016165  34.3988  90.1755 15.98197116 91764
MIRATA                  
1 43015U 17073C   19066.77280539  .00000742  00000-0  62907-4 0  9995
2 43015  97.7185 352.0180 0257192 132.8859 229.4264 14.78726343 70082
MAKERSAT 0              
1 43016U 17073D   19066.77213402  .00000516  00000-0  45244-4 0  9995
2 43016  97.7216 352.2051 0259200 133.1164 229.2050 14.78554312 70077
ASTERIA                 
1 43020U 98067NH  19067.41219550  .00020232  00000-0  19595-3 0  9990
2 43020  51.6412 120.5910 0002934  75.4359 284.6962 15.66373140 73800
DELLINGR (RBLE)         
1 43021U 98067NJ  19067.55487406  .00008571  00000-0  10486-3 0  9995
2 43021  51.6382 127.4611 0002847  70.5523 289.5778 15.61304017 73725
AEROCUBE 7B (OCSD B)    
1 43042U 17071F   19066.77141965  .00004035  00000-0  10762-3 0  9992
2 43042  51.6379 195.8391 0005132 139.5316 220.6051 15.40514369 70215
AEROCUBE 7C (OCSD C)    
1 43043U 17071G   19066.96634854  .00003886  00000-0  10407-3 0  9997
2 43043  51.6382 194.9031 0005228 141.5941 218.5417 15.40496465 70212
CHEFSAT                 
1 43044U 17071H   19066.53217377  .00005476  00000-0  13326-3 0  9998
2 43044  51.6388 193.5868 0004903 140.2533 219.8813 15.42575257 70194
ASGARDIA 1              
1 43049U 17071N   19066.53746734  .00002931  00000-0  80613-4 0  9994
2 43049  51.6388 196.5589 0002619 153.3819 206.7301 15.40610078 70147
ISARA                   
1 43050U 17071P   19066.58169813  .00005155  00000-0  12772-3 0  9999
2 43050  51.6380 193.8877 0002458 151.5859 208.5261 15.42159103 70195
PROPCUBE 2 (FAUNA)      
1 43052U 17071R   19067.53306374  .00004132  00000-0  10877-3 0  9990
2 43052  51.6387 191.2229 0002557 153.2538 206.8579 15.40848155 70306
CORVUS BC3              
1 43118U 18004H   19067.48862015  .00000782  00000-0  36639-4 0  9995
2 43118  97.4985 135.1320 0009018 246.3708 113.6582 15.22665428 63921
MICROMAS-2A             
1 43131U 18004W   19066.71930134  .00001721  00000-0  74642-4 0  9993
2 43131  97.5005 134.8376 0008035 251.2324 108.8041 15.23712793 63839
CICERO 7                
1 43143U 18004AJ  19067.41074987  .00001450  00000-0  62994-4 0  9995
2 43143  97.4992 135.7329 0006033 259.1771 100.8787 15.23925315 63951
GOMX-4B                 
1 43196U 18015E   19067.33423121  .00000372  00000-0  18348-4 0  9990
2 43196  97.3744 196.4351 0018017 311.5082  48.4602 15.23825841 60756
